[{"OBJECT_NAME":"STARLINK-34990","OBJECT_ID":"2025-179K","EPOCH":"2026-03-09T15:38:25.794816","MEAN_MOTION":15.05652828,"ECCENTRICITY":0.00019326,"INCLINATION":97.6033,"RA_OF_ASC_NODE":112.9434,"ARG_OF_PERICENTER":92.026,"MEAN_ANOMALY":268.1188,"EPHEMERIS_TYPE":0,"CLASSIFICATION_TYPE":"U","NORAD_CAT_ID":65244,"ELEMENT_SET_NO":999,"REV_AT_EPOCH":3187,"BSTAR":0.00051733303,"MEAN_MOTION_DOT":7.412e-5,"MEAN_MOTION_DDOT":0},{"OBJECT_NAME":"CZ-6A DEB","OBJECT_ID":"2024-140FM","EPOCH":"2026-03-09T15:58:48.665856","MEAN_MOTION":15.24907574,"ECCENTRICITY":0.01008734,"INCLINATION":89.2247,"RA_OF_ASC_NODE":296.4931,"ARG_OF_PERICENTER":41.247,"MEAN_ANOMALY":319.6342,"EPHEMERIS_TYPE":0,"CLASSIFICATION_TYPE":"U","NORAD_CAT_ID":60786,"ELEMENT_SET_NO":999,"REV_AT_EPOCH":8558,"BSTAR":0.0022097808,"MEAN_MOTION_DOT":0.0006402,"MEAN_MOTION_DDOT":0}]
